{
  "title": "Print Label Perusahaan",
  "totalCount": 2,
  "rows": [
    {
      "companyName": "PT Contoh Sejahtera",
      "contactName": "Budi Santoso",
      "position": "Direktur",
      "addressLine1": "Jl. Mawar No. 1",
      "addressLine2": "Gedung A, Lantai 3",
      "city": "Jakarta",
      "postcode": "12345",
      "sex": "Bpk",
      "title": "OCLSBY."
    },
    {
      "companyName": "PT Contoh Sejahtera",
      "contactName": "Budi Santoso",
      "position": "Direktur",
      "addressLine1": "Jl. Mawar No. 1",
      "addressLine2": "Gedung A, Lantai 3",
      "city": "Jakarta",
      "postcode": "12345",
      "sex": "Bpk",
      "title": "OCLSBY."
    },
    {
      "companyName": "PT Contoh Sejahtera",
      "contactName": "Budi Santoso",
      "position": "Direktur",
      "addressLine1": "Jl. Mawar No. 1",
      "addressLine2": "Gedung A, Lantai 3",
      "city": "Jakarta",
      "postcode": "12345",
      "sex": "Bpk",
      "title": "OCLSBY."
    },
    {
      "companyName": "PT Contoh Sejahtera",
      "contactName": "Budi Santoso",
      "position": "Direktur",
      "addressLine1": "Jl. Mawar No. 1",
      "addressLine2": "Gedung A, Lantai 3",
      "city": "Jakarta",
      "postcode": "12345",
      "sex": "Bpk",
      "title": "OCLSBY."
    },
    {
      "companyName": "PT Contoh Sejahtera",
      "contactName": "Budi Santoso",
      "position": "Direktur",
      "addressLine1": "Jl. Mawar No. 1",
      "addressLine2": "Gedung A, Lantai 3",
      "city": "Jakarta",
      "postcode": "12345",
      "sex": "Bpk",
      "title": "OCLSBY."
    },
    {
      "companyName": "PT Contoh Sejahtera",
      "contactName": "Budi Santoso",
      "position": "Direktur",
      "addressLine1": "Jl. Mawar No. 1",
      "addressLine2": "Gedung A, Lantai 3",
      "city": "Jakarta",
      "postcode": "12345",
      "sex": "Bpk",
      "title": "OCLSBY."
    },
    {
      "companyName": "PT Contoh Sejahtera",
      "contactName": "Budi Santoso",
      "position": "Direktur",
      "addressLine1": "Jl. Mawar No. 1",
      "addressLine2": "Gedung A, Lantai 3",
      "city": "Jakarta",
      "postcode": "12345",
      "sex": "Bpk",
      "title": "OCLSBY."
    },
    {
      "companyName": "PT Contoh Sejahtera",
      "contactName": "Budi Santoso",
      "position": "Direktur",
      "addressLine1": "Jl. Mawar No. 1",
      "addressLine2": "Gedung A, Lantai 3",
      "city": "Jakarta",
      "postcode": "12345",
      "sex": "Bpk",
      "title": "OCLSBY."
    },
    {
      "companyName": "PT Contoh Sejahtera",
      "contactName": "Budi Santoso",
      "position": "Direktur",
      "addressLine1": "Jl. Mawar No. 1",
      "addressLine2": "Gedung A, Lantai 3",
      "city": "Jakarta",
      "postcode": "12345",
      "sex": "Bpk",
      "title": "OCLSBY."
    },
    {
      "companyName": "PT Contoh Sejahtera",
      "contactName": "Budi Santoso",
      "position": "Direktur",
      "addressLine1": "Jl. Mawar No. 1",
      "addressLine2": "Gedung A, Lantai 3",
      "city": "Jakarta",
      "postcode": "12345",
      "sex": "Bpk",
      "title": "OCLSBY."
    }
  ]
}
